ASIASTAR                
1 26107U 00016A   16016.82294676 -.00000341  00000-0  00000+0 0  9999
2 26107   0.6175  80.3172 0004646 216.7336 219.9010  1.00270469 58000
EUTELSAT 16C            
1 26243U 00019A   16016.26392112  .00000084  00000-0  00000+0 0  9998
2 26243   3.2861  69.0622 0003309 234.5738 280.9634  1.00272574 57632
EUTELSAT 36A            
1 26369U 00028A   16017.15496206  .00000146  00000-0  00000+0 0  9994
2 26369   0.0645   7.5803 0004462 290.4113 269.8744  1.00269408 57330
TDRS 8                  
1 26388U 00034A   16016.59958707 -.00000237  00000-0  00000+0 0  9990
2 26388   6.5966  60.5943 0005979 205.2043 154.7646  1.00270473 57025
ECHOSTAR 6              
1 26402U 00038A   16016.47635609 -.00000156  00000-0  00000+0 0  9991
2 26402   3.1980  69.9324 0003576 226.4164 254.2596  1.00271763 56760
INTELSAT 9 (IS-9)       
1 26451U 00043A   16017.17498825 -.00000281  00000-0  00000+0 0  9995
2 26451   2.5204  73.9879 0002901 211.0558 210.8814  1.00271726 56708
BRASILSAT B4            
1 26469U 00046A   16015.91434690 -.00000218  00000-0  00000+0 0  9997
2 26469   0.5965  88.8657 0002792 210.2591  60.8316  1.00271923 56488
NILESAT 102             
1 26470U 00046B   16016.18515918 -.00000066  00000-0  00000+0 0  9993
2 26470   0.6107  85.2609 0006204 207.2153 242.2647  1.00272328 56482
ASTRA 2B                
1 26494U 00054A   16016.80529248  .00000145  00000-0  00000+0 0  9995
2 26494   1.1592  80.2274 0003045 212.3084 144.3787  1.00273721 56097
AMC-7 (GE-7)            
1 26495U 00054B   16017.05268987  .00000079  00000-0  00000+0 0  9990
2 26495   0.0369  46.3990 0002481 242.7494  70.8248  1.00271237 56119
NSS-11 (AAP-1)          
1 26554U 00059A   16016.81653986 -.00000353  00000-0  00000+0 0  9997
2 26554   0.0385 294.1014 0001108   2.3381 221.3833  1.00271584 56054
N-SAT-110 (JCSAT-110)   
1 26559U 00060A   16016.81653986 -.00000359  00000-0  00000+0 0  9990
2 26559   0.0196  74.1348 0000653 119.7902 325.7750  1.00271925 55988
AMC-6 (GE-6)            
1 26580U 00067A   16016.30665976 -.00000267  00000-0  00000+0 0  9995
2 26580   0.0456 290.8108 0002498   4.4568 218.2955  1.00270729 55837
INTELSAT 12 (IS-12)     
1 26590U 00068A   16017.15425914  .00000128  00000-0  00000+0 0  9992
2 26590   0.0648 263.6974 0003063  43.7871 269.0426  1.00271134 55650
INTELSAT 1R (IS-1R)     
1 26608U 00072A   16016.17867198 -.00000290  00000-0  00000+0 0  9993
2 26608   0.0492 230.4885 0000803 294.5172 324.3564  1.00271240 55509
ANIK F1                 
1 26624U 00076A   16015.97898409 -.00000082  00000-0  00000+0 0  9990
2 26624   0.0203 137.9091 0000674 113.4754 108.5927  1.00277172 55570
ASTRA 2D                
1 26638U 00081A   16015.80888417  .00000060  00000-0  00000+0 0  9996
2 26638   2.6511  72.5458 0001642 218.9809 171.5578  1.00271582 55238
AMC-8 (GE-8)            
1 26639U 00081B   16017.52261887  .00000095  00000-0  00000+0 0  9992
2 26639   0.0188 343.6750 0002802 327.9434 213.8758  1.00272649 55136
TURKSAT 2A              
1 26666U 01002A   16015.56543716  .00000140  00000-0  00000+0 0  9993
2 26666   0.1036  64.5886 0003842 247.4779  47.8860  1.00270993 55006
SKYNET 4F               
1 26695U 01005B   16015.16061134 -.00000253  00000-0  00000+0 0  9999
2 26695   8.2548  40.5238 0002928 258.0547 199.2451  1.00268261 54715
EUTELSAT 33C            
1 26719U 01011A   16016.19532247  .00000148  00000-0  00000+0 0  9997
2 26719   0.0640  17.1454 0004777 261.3625 299.9446  1.00269176 54429
XM-1 (ROLL)             
1 26761U 01018A   16014.43679706 -.00000260  00000-0  00000-0 0  9995
2 26761   0.0520  92.1061 0001095 331.7696 167.7268  1.00276256 53857
INTELSAT 10 (IS-10)     
1 26766U 01019A   16017.01384409  .00000117  00000-0  00000+0 0  9990
2 26766   0.4460  87.2738 0002591 205.4657 235.6123  1.00272687 53782
INTELSAT 901 (IS-901)   
1 26824U 01024A   16016.33586241 -.00000149  00000-0  00000+0 0  9999
2 26824   0.0155  36.5687 0003046 243.0519 298.4841  1.00271284 53444
ASTRA 2C                
1 26853U 01025A   16017.52016900  .00000037  00000-0  00000+0 0  9999
2 26853   0.0553 309.1401 0003172 338.5926  76.1700  1.00270941 53447
ARTEMIS                 
1 26863U 01029A   16016.80501804  .00000098  00000-0  00000+0 0  9993
2 26863  12.1295  38.6327 0005387 267.6417 120.5739  1.00273091 54258
INTELSAT 902 (IS-902)   
1 26900U 01039A   16016.73266170  .00000024  00000-0  00000+0 0  9991
2 26900   0.0043   4.3660 0003004 295.2483 141.7259  1.00272747 52629
EUTELSAT 8 WEST A       
1 26927U 01042A   16016.33428637 -.00000108  00000-0  00000+0 0  9992
2 26927   0.0629  21.4224 0006195 274.4063 287.2100  1.00270997 52379
DIRECTV 4S              
1 26985U 01052A   16016.53477972 -.00000121  00000-0  00000+0 0  9990
2 26985   0.0190  50.6103 0002245 243.8226 272.2888  1.00270685 51841
INSAT-3C                
1 27298U 02002A   16017.00715675 -.00000086  00000-0  00000+0 0  9992
2 27298   0.0158 350.6661 0003306 319.2841 242.4962  1.00270667 51218
ECHOSTAR 7              
1 27378U 02006A   16016.59618720 -.00000008  00000-0  00000+0 0  9995
2 27378   0.0282 315.2551 0001638 313.3962 302.6339  1.00269013 50911
INTELSAT 904 (IS-904)   
1 27380U 02007A   16016.73260834  .00000041  00000-0  00000+0 0  9990
2 27380   0.0523 278.9701 0003451  21.6542 138.6961  1.00271904 50956
TDRS 9                  
1 27389U 02011A   16016.27722223 -.00000105  00000-0  00000+0 0  9990
2 27389   4.1879  86.5843 0021629 221.4630 255.0814  1.00271982 52284
JCSAT-2A                
1 27399U 02015A   16017.44846637 -.00000175  00000-0  00000+0 0  9998
2 27399   0.0057 318.8434 0001617 321.2495 151.6423  1.00272083 50488
ASTRA 3A                
1 27400U 02015B   16015.37187453  .00000063  00000-0  00000+0 0  9990
2 27400   2.8224  71.3905 0001078 209.8174 150.0607  1.00272235 50551
INTELSAT 903 (IS-903)   
1 27403U 02016A   16017.34296818 -.00000248  00000-0  00000+0 0  9995
2 27403   0.0332  72.6798 0003277 230.9570 261.5246  1.00272475 50504
NSS-7                   
1 27414U 02019A   16015.73712836 -.00000162  00000-0  00000+0 0  9999
2 27414   0.8263  86.0197 0002846 223.9333  50.0067  1.00270591 50407
DIRECTV 5 (TEMPO 1)     
1 27426U 02023A   16015.98672900 -.00000063  00000-0  00000+0 0  9991
2 27426   0.0150  21.3444 0003545 274.6436  63.9755  1.00270448 50158
INTELSAT 905 (IS-905)   
1 27438U 02027A   16017.15900521 -.00000193  00000-0  00000+0 0  9996
2 27438   0.0044   0.9781 0002300 282.1805 225.5941  1.00272483 49828
EXPRESS-A4              
1 27441U 02029A   16016.26376764  .00000129  00000-0  00000+0 0  9997
2 27441   5.1662  60.0593 0003238  93.0221  74.7643  1.00699465 49819
GALAXY 3C (G-3C)        
1 27445U 02030A   16016.94232808 -.00000159  00000-0  00000+0 0  9992
2 27445   0.0200  31.1705 0002201 316.6171  12.1896  1.00263896 49817
EUTELSAT 5 WEST A       
1 27460U 02035A   16015.69541728 -.00000049  00000-0  00000+0 0  9997
2 27460   0.0387   2.1375 0005877 289.1070  68.6777  1.00269173 49598
N-STAR C                
1 27461U 02035B   16015.54863547 -.00000317  00000-0  00000+0 0  9996
2 27461   3.6596  67.9203 0003105 260.4477 119.5673  1.00269767 49516
EUTELSAT 33D            
1 27499U 02038A   16016.58741455  .00000147  00000-0  00000+0 0  9998
2 27499   0.0891 299.7057 0003137  86.7451 333.5486  1.00264630 49079
ECHOSTAR 8              
1 27501U 02039A   16016.53104515 -.00000250  00000-0  00000+0 0  9994
2 27501   0.0147  75.7707 0002777 221.6702 292.2090  1.00270626 49129
EUTELSAT 12 WEST A      
1 27508U 02040A   16015.76159978 -.00000236  00000-0  00000+0 0  9994
2 27508   0.0658   6.9825 0000778 280.9520  72.0420  1.00101495 49099
METEOSAT-8 (MSG-1)      
1 27509U 02040B   16017.22228752  .00000009  00000-0  00000+0 0  9992
2 27509   3.9320  60.3275 0001551 244.7478 254.6681  1.00276262 49105
INTELSAT 906 (IS-906)   
1 27513U 02041A   16016.73272269  .00000006  00000-0  00000+0 0  9992
2 27513   0.0653 267.8814 0003136  30.8193 144.8100  1.00271433 48828
KODAMA (DRTS)           
1 27516U 02042B   16017.07066111 -.00000249  00000-0  00000+0 0  9991
2 27516   4.0969  65.1910 0003027 251.7336 275.1740  1.00270606 48901
KALPANA-1 (METSAT 1)    
1 27525U 02043A   16015.63980523 -.00000090  00000-0  00000+0 0  9998
2 27525   5.4641  58.8448 0015620 220.0912 139.7940  1.00272559 48882
HISPASAT 1D             
1 27528U 02044A   16017.22494149 -.00000225  00000-0  00000+0 0  9993
2 27528   0.0575 295.0513 0005750   5.3903 226.6002  1.00272585 48803
TDRS 10                 
1 27566U 02055A   16017.32955630  .00000070  00000-0  00000+0 0  9992
2 27566   4.1255  60.7730 0012252 214.7847 145.0982  1.00264105 48081
NSS-6                   
1 27603U 02057A   16016.71879307 -.00000277  00000-0  00000+0 0  9994
2 27603   0.0199  43.7764 0003295 236.2020 189.3660  1.00267902 47971
NIMIQ 2                 
1 27632U 02062A   16015.55851995  .00000131  00000-0  00000+0 0  9994
2 27632   0.9258  85.1139 0001989 292.1122 342.7656  1.00271098 47720
INTELSAT 907 (IS-907)   
1 27683U 03007A   16016.75513825 -.00000211  00000-0  00000+0 0  9990
2 27683   0.0186  65.5139 0002987 229.5852  64.8528  1.00271729 47240
INSAT-3A                
1 27714U 03013A   16016.62656310 -.00000266  00000-0  00000+0 0  9995
2 27714   0.0422 245.1161 0001134 134.4203  55.0023  1.00269616 46801
GALAXY 12 (G-12)        
1 27715U 03013B   16017.30365269  .00000049  00000-0  00000+0 0  9990
2 27715   0.0629 242.1893 0002040  15.6321 198.6415  1.00272632 46865
ASIASAT 4               
1 27718U 03014A   16016.93623499 -.00000369  00000-0  00000+0 0  9990
2 27718   0.0154  12.9096 0001016 236.0347 325.9993  1.00269280 46779
HELLAS-SAT 2            
1 27811U 03020A   16014.90532845  .00000147  00000-0  00000-0 0  9994
2 27811   0.0229 292.3110 0004044   7.0027 179.4048  1.00275057  4688
AMC-9 (GE-12)           
1 27820U 03024A   16016.40699883 -.00000224  00000-0  00000+0 0  9997
2 27820   0.0498 289.8944 0003075  10.8304 238.0541  1.00272546 46186
